IRIDIUM 155             
1 43573U 18061E   24260.45007142  .00000654  00000+0  22629-3 0  9993
2 43573  86.3988 323.6294 0002037  97.2902 262.8526 14.34220652321800
IRIDIUM 154             
1 43574U 18061F   24260.57058215  .00000732  00000+0  25421-3 0  9994
2 43574  86.3990 323.6810 0002195  91.0717 269.0730 14.34212989321876
IRIDIUM 163             
1 43575U 18061G   24260.55155727  .00000422  00000+0  14374-3 0  9990
2 43575  86.3989 323.6244 0002139  92.6881 267.4560 14.34216524321842
IRIDIUM 156             
1 43576U 18061H   24260.59594603  .00000769  00000+0  26757-3 0  9997
2 43576  86.3989 323.6125 0002177 102.0264 258.1176 14.34222775321849
IRIDIUM 164             
1 43577U 18061J   24260.57692979  .00000160  00000+0  50124-4 0  9992
2 43577  86.3990 323.6507 0002375  93.8906 266.2562 14.34214865321880
IRIDIUM 159             
1 43578U 18061K   24260.61498519  .00000075  00000+0  19732-4 0  9997
2 43578  86.3986 323.5849 0002220  96.6198 263.5251 14.34214240321856
IRIDIUM 180             
1 43922U 19002A   24260.40517272  .00000076  00000+0  19957-4 0  9991
2 43922  86.3910 260.5088 0002385  86.8574 273.2895 14.34216659297436
IRIDIUM 176             
1 43923U 19002B   24260.53442695  .00001304  00000+0  20292-3 0  9990
2 43923  86.6038 260.4691 0002765  88.2192 271.9341 14.72243947305280
IRIDIUM 168             
1 43924U 19002C   24260.53836636 -.00000199  00000+0 -78270-4 0  9996
2 43924  86.3911 260.5124 0002239  88.5582 271.5870 14.34217205297438
IRIDIUM 173             
1 43925U 19002D   24260.52568271 -.00000301  00000+0 -11449-3 0  9992
2 43925  86.3911 260.4329 0002259  86.6852 273.4602 14.34216727297427
IRIDIUM 169             
1 43926U 19002E   24260.59115867  .00001028  00000+0  32957-3 0  9991
2 43926  86.4183 292.0570 0000726  40.3957 319.7295 14.38605150298417
IRIDIUM 172             
1 43927U 19002F   24260.51934045  .00000836  00000+0  29130-3 0  9996
2 43927  86.3908 260.4413 0002290  91.1506 268.9952 14.34216247297425
IRIDIUM 175             
1 43928U 19002G   24260.59686058  .00003301  00000+0  51962-3 0  9991
2 43928  86.1499 228.4294 0002151  89.2729 270.8733 14.72238601305284
IRIDIUM 171             
1 43929U 19002H   24260.50031099  .00000335  00000+0  11264-3 0  9997
2 43929  86.3919 260.6854 0002415  95.7916 264.3555 14.34216014297414
IRIDIUM 170             
1 43930U 19002J   24260.54060645  .00001301  00000+0  20246-3 0  9996
2 43930  86.6038 260.4717 0002675  87.6633 272.4890 14.72245379305297
IRIDIUM 167             
1 43931U 19002K   24260.49396949  .00000640  00000+0  22141-3 0  9991
2 43931  86.3914 260.4689 0002241  91.6602 268.4850 14.34217955297418
IRIDIUM 181             
1 56726U 23068S   24260.60496360  .00001169  00000+0  33946-3 0  9997
2 56726  86.8643 318.6333 0002247 100.6895 259.4559 14.43580860 70324
IRIDIUM 177             
1 56727U 23068T   24260.55500946  .00001658  00000+0  21498-3 0  9990
2 56727  86.1917 271.9672 0001976  92.0867 268.0580 14.80191194 71892
IRIDIUM 174             
1 56728U 23068U   24260.54960348  .00001613  00000+0  20906-3 0  9990
2 56728  86.1923 272.0807 0002140  94.7955 265.3510 14.80174799 71898
IRIDIUM 178             
1 56729U 23068V   24260.54414140  .00003625  00000+0  47375-3 0  9999
2 56729  86.5742 293.8931 0002471  93.9964 266.1540 14.80212965 71899
IRIDIUM 179             
1 56730U 23068W   24260.60633597  .00003599  00000+0  47025-3 0  9999
2 56730  86.6760 299.1564 0001927  90.0707 270.0736 14.80225341 71906
